NORAD_CAT_ID,OBJECT_NAME,OBJECT_TYPE,EPOCH,MEAN_MOTION,ECCENTRICITY,INCLINATION,RA_OF_ASC_NODE,ARG_OF_PERICENTER,MEAN_ANOMALY,BSTAR,MEAN_MOTION_DOT,MEAN_MOTION_DDOT,TLE_LINE0,TLE_LINE1,TLE_LINE2,SEMIMAJOR_AXIS,PERIOD,APOGEE,PERIGEE,DECAYED
52499.0,STARLINK-3894,PAYLOAD,2022-10-29 21:56:53,15.08849192,0.0002144,53.2185,156.3373,40.4487,319.6664,7.198e-05,8.58e-06,0.0,0 STARLINK-3894,1 52499U 22049BA  22302.91450292  .00000858  00000-0  71980-4 0  9997,2 52499  53.2185 156.3373 0002144  40.4487 319.6664 15.08849192 27350,6917.852,95.437,541.2,538.234,0.0
52499.0,STARLINK-3894,PAYLOAD,2022-10-30 18:36:54,15.08840931,0.0002086999999999,53.2181,152.4717,41.0612,319.0537,2.8733e-05,1.69e-06,0.0,0 STARLINK-3894,1 52499U 22049BA  22303.77562707  .00000169  00000-0  28733-4 0  9990,2 52499  53.2181 152.4717 0002087  41.0612 319.0537 15.08840931 27320,6917.878000000002,95.437,541.186,538.299,0.0
52499.0,STARLINK-3894,PAYLOAD,2022-10-30 23:23:04,15.08829244,0.0002015,53.2181,151.5796,43.0398,317.0752,-7.0191e-05,-1.405e-05,0.0,0 STARLINK-3894,1 52499U 22049BA  22303.97435890 -.00001405  00000-0 -70191-4 0  9995,2 52499  53.2181 151.5796 0002015  43.0398 317.0752 15.08829244 27355,6917.913000000001,95.438,541.172,538.384,0.0
52499.0,STARLINK-3894,PAYLOAD,2022-10-31 20:03:05,15.08835267,0.0002174,53.2178,147.7139,41.0043,319.1112,-7.8011e-06,-4.12e-06,0.0,0 STARLINK-3894,1 52499U 22049BA  22304.83547736 -.00000412  00000-0 -78011-5 0  9991,2 52499  53.2178 147.7139 0002174  41.0043 319.1112 15.08835267 27647,6917.895,95.438,541.264,538.256,0.0
52499.0,STARLINK-3894,PAYLOAD,2022-11-01 07:10:46,15.08839464,0.0002189,53.2179,145.6324,42.021,318.0949,6.0359e-05,6.72e-06,0.0,0 STARLINK-3894,1 52499U 22049BA  22305.29915398  .00000672  00000-0  60359-4 0  9996,2 52499  53.2179 145.6324 0002189  42.0210 318.0949 15.08839464 27711,6917.882,95.438,541.261,538.2330000000002,0.0
52499.0,STARLINK-3894,PAYLOAD,2022-11-01 23:04:37,15.08843225,0.0002225,53.2179,142.6598,36.3112,323.8031,0.00020289,2.943e-05,0.0,0 STARLINK-3894,1 52499U 22049BA  22305.96154856  .00002943  00000-0  20289-3 0  9994,2 52499  53.2179 142.6598 0002225  36.3112 323.8031 15.08843225 27658,6917.871,95.437,541.275,538.196,0.0
52499.0,STARLINK-3894,PAYLOAD,2022-11-03 00:30:49,15.08836044,0.0001564,53.2176,137.901,33.7521,326.3571,-2.8656e-05,-7.44e-06,0.0,0 STARLINK-3894,1 52499U 22049BA  22307.02140146 -.00000744  00000-0 -28656-4 0  9996,2 52499  53.2176 137.9010 0001564  33.7521 326.3571 15.08836044 27974,6917.892,95.438,540.839,538.6759999999998,0.0
52499.0,STARLINK-3894,PAYLOAD,2022-11-03 13:13:54,15.08839572,0.0002277,53.2186,135.5226,37.3155,322.7995,-3.4864000000000004e-05,-8.43e-06,0.0,0 STARLINK-3894,1 52499U 22049BA  22307.55132315 -.00000843  00000-0 -34864-4 0  9991,2 52499  53.2186 135.5226 0002277  37.3155 322.7995 15.08839572 27893,6917.882,95.438,541.322,538.1709999999998,0.0
52499.0,STARLINK-3894,PAYLOAD,2022-11-03 14:49:17,15.08841193,0.0002173,53.2188,135.2248,41.2873,318.8284,-5.1143e-05,-1.102e-05,0.0,0 STARLINK-3894,1 52499U 22049BA  22307.61756259 -.00001102  00000-0 -51143-4 0  9995,2 52499  53.2188 135.2248 0002173  41.2873 318.8284 15.08841193 27903,6917.877,95.437,541.245,538.238,0.0
52499.0,STARLINK-3894,PAYLOAD,2022-11-03 22:46:12,15.08844952,0.0002416,53.2179,133.7392,36.5696,323.5461,-6.6965e-06,-3.95e-06,0.0,0 STARLINK-3894,1 52499U 22049BA  22307.94875903 -.00000395  00000-0 -66965-5 0  9991,2 52499  53.2179 133.7392 0002416  36.5696 323.5461 15.08844952 28116,6917.865,95.437,541.4019999999998,538.059,0.0
52499.0,STARLINK-3894,PAYLOAD,2022-11-04 05:07:44,15.08864858,0.0002157,53.2181,132.5492,38.6283,321.4863,-0.00016497,-2.915e-05,0.0,0 STARLINK-3894,1 52499U 22049BA  22308.21370805 -.00002915  00000-0 -16497-3 0  9996,2 52499  53.2181 132.5492 0002157  38.6283 321.4863 15.08864858 28158,6917.804,95.436,541.1619999999998,538.177,0.0
52499.0,STARLINK-3894,PAYLOAD,2022-11-04 13:04:40,15.08843594,0.0002075,53.2186,131.0621,36.5742,323.5392,0.00018945,2.729e-05,0.0,0 STARLINK-3894,1 52499U 22049BA  22308.54491318  .00002729  00000-0  18945-3 0  9996,2 52499  53.2186 131.0621 0002075  36.5742 323.5392 15.08843594 28049,6917.869000000002,95.437,541.17,538.299,0.0
52499.0,STARLINK-3894,PAYLOAD,2022-11-04 19:26:13,15.08836455,0.0001882,53.2196,129.8711,24.3253,335.7828,0.00012535,1.707e-05,0.0,0 STARLINK-3894,1 52499U 22049BA  22308.80987872  .00001707  00000-0  12535-3 0  9994,2 52499  53.2196 129.8711 0001882  24.3253 335.7828 15.08836455 28241,6917.891,95.438,541.058,538.4540000000002,0.0
52499.0,STARLINK-3894,PAYLOAD,2022-11-04 21:01:36,15.08838948,0.000218,53.2192,129.5753,34.1768,325.9364,0.00011628,1.563e-05,0.0,0 STARLINK-3894,1 52499U 22049BA  22308.87611871  .00001563  00000-0  11628-3 0  9996,2 52499  53.2192 129.5753 0002180  34.1768 325.9364 15.08838948 28090,6917.884,95.438,541.257,538.241,0.0
52499.0,STARLINK-3894,PAYLOAD,2022-11-05 11:20:05,15.08836469,0.0002163,53.2188,126.8992,35.3883,324.7253,7.7882e-05,9.51e-06,0.0,0 STARLINK-3894,1 52499U 22049BA  22309.47228228  .00000951  00000-0  77882-4 0  9998,2 52499  53.2188 126.8992 0002163  35.3883 324.7253 15.08836469 28182,6917.891,95.438,541.253,538.26,0.0
52499.0,STARLINK-3894,PAYLOAD,2022-11-05 14:30:51,15.08835155,0.0002125,53.2187,126.3042,41.3983,318.717,1.9403e-05,2.1e-07,0.0,0 STARLINK-3894,1 52499U 22049BA  22309.60476506  .00000021  00000-0  19403-4 0  9990,2 52499  53.2187 126.3042 0002125  41.3983 318.7170 15.08835155 28203,6917.895,95.438,541.23,538.29,0.0
52499.0,STARLINK-3894,PAYLOAD,2022-11-06 04:49:19,15.08838411,0.0002107,53.219,123.6283,35.4271,324.6861,-2.7969e-05,-7.33e-06,0.0,0 STARLINK-3894,1 52499U 22049BA  22310.20092517 -.00000733  00000-0 -27969-4 0  9992,2 52499  53.2190 123.6283 0002107  35.4271 324.6861 15.08838411 28456,6917.885,95.438,541.2080000000002,538.293,0.0
52499.0,STARLINK-3894,PAYLOAD,2022-11-06 11:10:52,15.08840455,0.0002048,53.2191,122.4385,34.1947,325.9177,-1.3916e-05,-5.1e-06,0.0,0 STARLINK-3894,1 52499U 22049BA  22310.46588327 -.00000510  00000-0 -13916-4 0  9999,2 52499  53.2191 122.4385 0002048  34.1947 325.9177 15.08840455 28339,6917.879,95.438,541.161,538.327,0.0
52499.0,STARLINK-3894,PAYLOAD,2022-11-07 06:15:29,15.08841537,0.0002166,53.2189,118.8707,34.3586,325.7546,5.761e-05,6.29e-06,0.0,0 STARLINK-3894,1 52499U 22049BA  22311.26075920  .00000629  00000-0  57610-4 0  9996,2 52499  53.2189 118.8707 0002166  34.3586 325.7546 15.08841537 28616,6917.876,95.437,541.239,538.242,0.0
52499.0,STARLINK-3894,PAYLOAD,2022-11-07 20:33:57,15.08840319,0.0002196,53.2188,116.1947,34.547,325.5665,0.00013935,1.93e-05,0.0,0 STARLINK-3894,1 52499U 22049BA  22311.85691880  .00001930  00000-0  13935-3 0  9997,2 52499  53.2188 116.1947 0002196  34.5470 325.5665 15.08840319 28548,6917.879,95.438,541.264,538.225,0.0
52499.0,STARLINK-3894,PAYLOAD,2022-11-08 04:30:54,15.08834553,0.0002102,53.2193,114.7079,34.4317,325.6811,4.8482e-05,4.83e-06,0.0,0 STARLINK-3894,1 52499U 22049BA  22312.18812503  .00000483  00000-0  48482-4 0  9999,2 52499  53.2193 114.7079 0002102  34.4317 325.6811 15.08834553 28750,6917.897,95.438,541.216,538.308,0.0
52499.0,STARLINK-3894,PAYLOAD,2022-11-08 10:52:26,15.08838591,0.0002184,53.2182,113.518,33.7743,326.3388,6.6735e-05,7.74e-06,0.0,0 STARLINK-3894,1 52499U 22049BA  22312.45308220  .00000774  00000-0  66735-4 0  9999,2 52499  53.2182 113.5180 0002184  33.7743 326.3388 15.08838591 28633,6917.885,95.438,541.261,538.239,0.0
52499.0,STARLINK-3894,PAYLOAD,2022-11-08 17:13:58,15.08846417,0.0002165,53.2191,112.3291,34.479,325.6342,0.00013061,1.791e-05,0.0,0 STARLINK-3894,1 52499U 22049BA  22312.71803672  .00001791  00000-0  13061-3 0  9992,2 52499  53.2191 112.3291 0002165  34.4790 325.6342 15.08846417 28832,6917.861,95.437,541.2230000000002,538.2280000000002,0.0
52499.0,STARLINK-3894,PAYLOAD,2022-11-09 13:53:59,15.08832182,0.0002234,53.2177,108.4633,36.5345,323.5799,-9.8507e-05,-1.855e-05,0.0,0 STARLINK-3894,1 52499U 22049BA  22313.57915933 -.00001855  00000-0 -98507-4 0  9993,2 52499  53.2177 108.4633 0002234  36.5345 323.5799 15.08832182 28802,6917.904,95.438,541.315,538.224,0.0
52499.0,STARLINK-3894,PAYLOAD,2022-11-09 17:04:45,15.08832573,0.0002272,53.2183,107.8695,33.688,326.4256,-7.4905e-05,-1.4800000000000002e-05,0.0,0 STARLINK-3894,1 52499U 22049BA  22313.71164003 -.00001480  00000-0 -74905-4 0  9993,2 52499  53.2183 107.8695 0002272  33.6880 326.4256 15.08832573 28987,6917.903,95.438,541.34,538.196,0.0
52499.0,STARLINK-3894,PAYLOAD,2022-11-09 20:15:31,15.08834368,0.0002316,53.218,107.2738,33.9651,326.1489,-7.6878e-05,-1.512e-05,0.0,0 STARLINK-3894,1 52499U 22049BA  22313.84411929 -.00001512  00000-0 -76878-4 0  9996,2 52499  53.2180 107.2738 0002316  33.9651 326.1489 15.08834368 28848,6917.898,95.438,541.365,538.16,0.0
52499.0,STARLINK-3894,PAYLOAD,2022-11-10 13:44:46,15.08839924,0.0002293,53.2179,104.0024,33.3668,326.7468,3.3419e-05,2.44e-06,0.0,0 STARLINK-3894,1 52499U 22049BA  22314.57275836  .00000244  00000-0  33419-4 0  9995,2 52499  53.2179 104.0024 0002293  33.3668 326.7468 15.08839924 28953,6917.880999999999,95.438,541.332,538.159,0.0
52499.0,STARLINK-3894,PAYLOAD,2022-11-10 16:55:32,15.08843352,0.0002339,53.2183,103.4084,36.6721,323.4431,8.6566e-05,1.09e-05,0.0,0 STARLINK-3894,1 52499U 22049BA  22314.70523700  .00001090  00000-0  86566-4 0  9997,2 52499  53.2183 103.4084 0002339  36.6721 323.4431 15.08843352 29139,6917.87,95.437,541.3530000000002,538.117,0.0
52499.0,STARLINK-3894,PAYLOAD,2022-11-10 18:30:55,15.08844844,0.0002336,53.2185,103.1111,41.7932,318.3239,0.00013237,1.819e-05,0.0,0 STARLINK-3894,1 52499U 22049BA  22314.77147658  .00001819  00000-0  13237-3 0  9991,2 52499  53.2185 103.1111 0002336  41.7932 318.3239 15.08844844 28985,6917.866,95.437,541.347,538.115,0.0
